NORAD_CAT_ID,OBJECT_NAME,OBJECT_TYPE,EPOCH,MEAN_MOTION,ECCENTRICITY,INCLINATION,RA_OF_ASC_NODE,ARG_OF_PERICENTER,MEAN_ANOMALY,BSTAR,MEAN_MOTION_DOT,MEAN_MOTION_DDOT,TLE_LINE0,TLE_LINE1,TLE_LINE2,SEMIMAJOR_AXIS,PERIOD,APOGEE,PERIGEE,DECAYED
56449.0,STARLINK-5993,PAYLOAD,2024-07-28 05:10:14,14.9832779,0.000329,69.9991,190.9261,268.4584,91.6198,-2.5343e-05,-3.95e-06,0.0,0 STARLINK-5993,1 56449U 23064B   24210.21544148 -.00000395  00000-0 -25343-4 0  9991,2 56449  69.9991 190.9261 0003290 268.4584  91.6198 14.98327790 67302,6950.2,96.107,574.351,569.778,0.0
56449.0,STARLINK-5993,PAYLOAD,2024-07-28 22:47:42,14.98330761,0.0003276,69.9993,189.0741,269.3038,90.7746,1.1818e-05,4.8e-07,0.0,0 STARLINK-5993,1 56449U 23064B   24210.94979882  .00000048  00000-0  11818-4 0  9993,2 56449  69.9993 189.0741 0003276 269.3038  90.7746 14.98330761 67057,6950.191,96.107,574.332,569.779,0.0
56449.0,STARLINK-5993,PAYLOAD,2024-07-29 05:12:14,14.98331313,0.0003273,69.9993,188.4014,269.6673,90.4111,2.4932e-05,2.04e-06,0.0,0 STARLINK-5993,1 56449U 23064B   24211.21683812  .00000204  00000-0  24932-4 0  9994,2 56449  69.9993 188.4014 0003273 269.6673  90.4111 14.98331313 67459,6950.189,96.107,574.329,569.779,0.0
56449.0,STARLINK-5993,PAYLOAD,2024-07-29 08:24:30,14.98332264,0.0003248,69.9994,188.0648,269.5863,90.4924,3.6857e-05,3.47e-06,0.0,0 STARLINK-5993,1 56449U 23064B   24211.35035713  .00000347  00000-0  36857-4 0  9997,2 56449  69.9994 188.0648 0003248 269.5863  90.4924 14.98332264 67112,6950.186,96.107,574.308,569.793,0.0
56449.0,STARLINK-5993,PAYLOAD,2024-07-29 22:49:43,14.98330336,0.0003333,69.9992,186.5495,270.2471,89.8306,6.2252e-05,6.5e-06,0.0,0 STARLINK-5993,1 56449U 23064B   24211.95119725  .00000650  00000-0  62252-4 0  9994,2 56449  69.9992 186.5495 0003333 270.2471  89.8306 14.98330336 67206,6950.192,96.107,574.373,569.74,0.0
56449.0,STARLINK-5993,PAYLOAD,2024-07-30 05:14:15,14.98332558,0.0003335,69.9993,185.8764,270.3071,89.7706,8.3388e-05,9.02e-06,0.0,0 STARLINK-5993,1 56449U 23064B   24212.21823522  .00000902  00000-0  83388-4 0  9994,2 56449  69.9993 185.8764 0003335 270.3071  89.7706 14.98332558 67602,6950.185,96.107,574.368,569.732,0.0
56449.0,STARLINK-5993,PAYLOAD,2024-07-30 08:26:31,14.98333974,0.0003308,69.9993,185.5397,270.2342,89.8438,9.7442e-05,1.07e-05,0.0,0 STARLINK-5993,1 56449U 23064B   24212.35175374  .00001070  00000-0  97442-4 0  9997,2 56449  69.9993 185.5397 0003308 270.2342  89.8438 14.98333974 67269,6950.181,96.107,574.345,569.746,0.0
56449.0,STARLINK-5993,PAYLOAD,2024-07-30 22:51:44,14.9832983,0.0003205,69.9995,184.0247,270.4884,89.5907,1.6526e-05,1.04e-06,0.0,0 STARLINK-5993,1 56449U 23064B   24212.95259832  .00000104  00000-0  16526-4 0  9996,2 56449  69.9995 184.0247 0003205 270.4884  89.5907 14.98329830 67352,6950.193,96.107,574.286,569.831,0.0
56449.0,STARLINK-5993,PAYLOAD,2024-07-31 05:16:16,14.98332477,0.000322,69.9994,183.3515,270.3703,89.7087,4.2083e-05,4.09e-06,0.0,0 STARLINK-5993,1 56449U 23064B   24213.21963584  .00000409  00000-0  42083-4 0  9997,2 56449  69.9994 183.3515 0003220 270.3703  89.7087 14.98332477 67753,6950.185,96.107,574.288,569.812,0.0
56449.0,STARLINK-5993,PAYLOAD,2024-07-31 08:28:32,14.98333384,0.0003212,69.9994,183.0149,270.4206,89.6585,5.0781e-05,5.13e-06,0.0,0 STARLINK-5993,1 56449U 23064B   24213.35315484  .00000513  00000-0  50781-4 0  9992,2 56449  69.9994 183.0149 0003212 270.4206  89.6585 14.98333384 67416,6950.182,96.107,574.28,569.815,0.0
56449.0,STARLINK-5993,PAYLOAD,2024-07-31 22:53:45,14.98329317,0.0003121,69.9997,181.5002,271.1985,88.8817,-3.591e-05,-5.21e-06,0.0,0 STARLINK-5993,1 56449U 23064B   24213.95399948 -.00000521  00000-0 -35910-4 0  9993,2 56449  69.9997 181.5002 0003121 271.1985  88.8817 14.98329317 67501,6950.195,96.107,574.229,569.891,0.0
56449.0,STARLINK-5993,PAYLOAD,2024-08-01 05:18:17,14.98322902,0.0003236,69.9999,180.8278,264.8289,95.2501,0.00017854,2.038e-05,0.0,0 STARLINK-5993,1 56449U 23064B   24214.22103739  .00002038  00000-0  17854-3 0  9994,2 56449  69.9999 180.8278 0003236 264.8289  95.2501 14.98322902 67902,6950.215,96.107,574.329,569.831,0.0
56449.0,STARLINK-5993,PAYLOAD,2024-08-01 06:54:25,14.98333782,0.0003065,69.9999,180.6598,264.9263,95.1546,2.9431e-05,2.58e-06,0.0,0 STARLINK-5993,1 56449U 23064B   24214.28779423  .00000258  00000-0  29431-4 0  9996,2 56449  69.9999 180.6598 0003065 264.9263  95.1546 14.98333782 67915,6950.181,96.107,574.176,569.916,0.0
56449.0,STARLINK-5993,PAYLOAD,2024-08-01 22:55:46,14.98329163,0.0002987,70.0,178.9766,264.7752,95.3066,9.7823e-05,1.074e-05,0.0,0 STARLINK-5993,1 56449U 23064B   24214.95539395  .00001074  00000-0  97823-4 0  9999,2 56449  70.0000 178.9766 0002987 264.7752  95.3066 14.98329163 67659,6950.195,96.107,574.137,569.984,0.0
56449.0,STARLINK-5993,PAYLOAD,2024-08-02 08:32:34,14.98335067,0.00032,70.0,177.9666,269.6041,90.4752,0.00010718,1.186e-05,0.0,0 STARLINK-5993,1 56449U 23064B   24215.35594990  .00001186  00000-0  10718-3 0  9997,2 56449  70.0000 177.9666 0003200 269.6041  90.4752 14.98335067 68076,6950.177,96.107,574.266,569.818,0.0
56449.0,STARLINK-5993,PAYLOAD,2024-08-02 14:57:06,14.98329948,0.0003119,69.9996,177.2905,272.7796,87.3006,3.1602e-05,2.84e-06,0.0,0 STARLINK-5993,1 56449U 23064B   24215.62299423  .00000284  00000-0  31602-4 0  9994,2 56449  69.9996 177.2905 0003119 272.7796  87.3006 14.98329948 68110,6950.193,96.107,574.226,569.89,0.0
56449.0,STARLINK-5993,PAYLOAD,2024-08-02 22:57:47,14.98324981,0.000301,69.9986,176.4475,273.1608,86.9207,3.7232e-05,3.51e-06,0.0,0 STARLINK-5993,1 56449U 23064B   24215.95679770  .00000351  00000-0  37232-4 0  9997,2 56449  69.9986 176.4475 0003010 273.1608  86.9207 14.98324981 67804,6950.208,96.107,574.165,569.981,0.0
56449.0,STARLINK-5993,PAYLOAD,2024-08-03 06:58:27,14.98318385,0.0003046,69.9995,175.6077,266.2634,93.8177,0.00020103,2.306e-05,0.0,0 STARLINK-5993,1 56449U 23064B   24216.29059814  .00002306  00000-0  20103-3 0  9996,2 56449  69.9995 175.6077 0003046 266.2634  93.8177 14.98318385 68214,6950.229,96.108,574.211,569.977,0.0
56449.0,STARLINK-5993,PAYLOAD,2024-08-03 22:59:48,14.98327562,0.0002998,69.9999,173.9269,270.1622,89.9193,-1.9977e-05,-3.31e-06,0.0,0 STARLINK-5993,1 56449U 23064B   24216.95819892 -.00000331  00000-0 -19977-4 0  9995,2 56449  69.9999 173.9269 0002998 270.1622  89.9193 14.98327562 67959,6950.2,96.107,574.149,569.982,0.0
56449.0,STARLINK-5993,PAYLOAD,2024-08-04 05:24:20,14.98333058,0.0002906,69.9999,173.2525,267.0705,93.0122,3.8992e-05,3.72e-06,0.0,0 STARLINK-5993,1 56449U 23064B   24217.22523392  .00000372  00000-0  38992-4 0  9994,2 56449  69.9999 173.2525 0002906 267.0705  93.0122 14.98333058 68353,6950.183,96.107,574.068,570.029,0.0
56449.0,STARLINK-5993,PAYLOAD,2024-08-04 15:01:08,14.98336211,0.0002887,70.0,172.2425,269.739,90.3438,-1.5222e-06,-1.11e-06,0.0,0 STARLINK-5993,1 56449U 23064B   24217.62579214 -.00000111  00000-0 -15222-5 0  9997,2 56449  70.0000 172.2425 0002887 269.7390  90.3438 14.98336211 68055,6950.174,96.107,574.045,570.032,0.0
56449.0,STARLINK-5993,PAYLOAD,2024-08-04 23:01:48,14.98333481,0.0002866,70.0,171.4009,269.3647,90.7183,0.0001309,1.469e-05,0.0,0 STARLINK-5993,1 56449U 23064B   24217.95959022  .00001469  00000-0  13090-3 0  9996,2 56449  70.0000 171.4009 0002866 269.3647  90.7183 14.98333481 68105,6950.182,96.107,574.039,570.055,0.0
56449.0,STARLINK-5993,PAYLOAD,2024-08-05 05:26:20,14.98341288,0.000287,69.9998,170.728,269.7499,90.3331,0.0001805,2.062e-05,0.0,0 STARLINK-5993,1 56449U 23064B   24218.22662356  .00002062  00000-0  18050-3 0  9999,2 56449  69.9998 170.7280 0002870 269.7499  90.3331 14.98341288 68504,6950.158,96.106,574.018,570.028,0.0
56449.0,STARLINK-5993,PAYLOAD,2024-08-05 21:27:42,14.98319275,0.0002852,69.9997,169.045,270.6743,89.4089,-7.9526e-05,-1.041e-05,0.0,0 STARLINK-5993,1 56449U 23064B   24218.89424550 -.00001041  00000-0 -79526-4 0  9998,2 56449  69.9997 169.0450 0002852 270.6743  89.4089 14.98319275 68607,6950.226,96.108,574.073,570.109,0.0
56449.0,STARLINK-5993,PAYLOAD,2024-08-05 23:03:50,14.98319578,0.0002742,69.9997,168.8767,270.2034,89.8811,-7.4944e-05,-9.87e-06,0.0,0 STARLINK-5993,1 56449U 23064B   24218.96100574 -.00000987  00000-0 -74944-4 0  9990,2 56449  69.9997 168.8767 0002742 270.2034  89.8811 14.98319578 68256,6950.225,96.108,573.996,570.184,0.0
56449.0,STARLINK-5993,PAYLOAD,2024-08-06 13:29:03,14.98328947,0.0002961,69.9995,167.3619,273.3215,86.7605,-3.0835e-06,-1.3e-06,0.0,0 STARLINK-5993,1 56449U 23064B   24219.56184125 -.00000130  00000-0 -30835-5 0  9993,2 56449  69.9995 167.3619 0002961 273.3215  86.7605 14.98328947 68349,6950.196,96.107,574.119,570.003,0.0
56449.0,STARLINK-5993,PAYLOAD,2024-08-06 21:29:43,14.98333054,0.0003037,69.9984,166.5195,275.1838,84.8974,-1.5726e-05,-2.81e-06,0.0,0 STARLINK-5993,1 56449U 23064B   24219.89563841 -.00000281  00000-0 -15726-4 0  9993,2 56449  69.9984 166.5195 0003037 275.1838  84.8974 14.98333054 68391,6950.183,96.107,574.159,569.938,0.0
56449.0,STARLINK-5993,PAYLOAD,2024-08-07 03:54:14,14.983433,0.0002599,70.0004,165.849,258.511,101.5757,8.8315e-05,9.61e-06,0.0,0 STARLINK-5993,1 56449U 23064B   24220.16266821  .00000961  00000-0  88315-4 0  9990,2 56449  70.0004 165.8490 0002599 258.5110 101.5757 14.98343300 68792,6950.152,96.106,573.823,570.21,0.0
56449.0,STARLINK-5993,PAYLOAD,2024-08-07 05:30:22,14.98342709,0.0002721,70.0004,165.6801,270.02,90.0647,0.00011953,1.334e-05,0.0,0 STARLINK-5993,1 56449U 23064B   24220.22942881  .00001334  00000-0  11953-3 0  9992,2 56449  70.0004 165.6801 0002721 270.0200  90.0647 14.98342709 68446,6950.154,96.106,573.91,570.127,0.0
56449.0,STARLINK-5993,PAYLOAD,2024-08-08 05:32:24,14.98330094,0.0002128,70.0016,163.1553,257.2886,102.8036,0.00028862,3.352e-05,0.0,0 STARLINK-5993,1 56449U 23064B   24221.23083365  .00003352  00000-0  28862-3 0  9996,2 56449  70.0016 163.1553 0002128 257.2886 102.8036 14.98330094 68598,6950.193,96.107,573.537,570.579,0.0
